[
    {
        "OBJECT_NAME": "SL-3 R/B",
        "OBJECT_ID": "1983-010B",
        "EPOCH": "2026-05-09T19:24:03.375360",
        "MEAN_MOTION": 15.48141768,
        "ECCENTRICITY": 0.0015779,
        "INCLINATION": 81.1009,
        "RA_OF_ASC_NODE": 287.1918,
        "ARG_OF_PERICENTER": 191.6629,
        "MEAN_ANOMALY": 168.4253,
        "EPHEMERIS_TYPE": 0,
        "CLASSIFICATION_TYPE": "U",
        "NORAD_CAT_ID": 13819,
        "ELEMENT_SET_NO": 999,
        "REV_AT_EPOCH": 36739,
        "BSTAR": 0.00019564,
        "MEAN_MOTION_DOT": 0.00010355,
        "MEAN_MOTION_DDOT": 0
    },
    {
        "OBJECT_NAME": "SL-3 R/B",
        "OBJECT_ID": "1983-075B",
        "EPOCH": "2026-05-09T19:12:29.974752",
        "MEAN_MOTION": 15.39776199,
        "ECCENTRICITY": 0.0021209,
        "INCLINATION": 97.6123,
        "RA_OF_ASC_NODE": 136.7577,
        "ARG_OF_PERICENTER": 16.4992,
        "MEAN_ANOMALY": 343.6938,
        "EPHEMERIS_TYPE": 0,
        "CLASSIFICATION_TYPE": "U",
        "NORAD_CAT_ID": 14208,
        "ELEMENT_SET_NO": 999,
        "REV_AT_EPOCH": 33955,
        "BSTAR": 0.0001971,
        "MEAN_MOTION_DOT": 7.776e-05,
        "MEAN_MOTION_DDOT": 0
    },
    {
        "OBJECT_NAME": "COSMOS 1536",
        "OBJECT_ID": "1984-013A",
        "EPOCH": "2026-05-09T20:07:37.276032",
        "MEAN_MOTION": 15.24639848,
        "ECCENTRICITY": 0.0016092,
        "INCLINATION": 82.5459,
        "RA_OF_ASC_NODE": 47.021,
        "ARG_OF_PERICENTER": 70.23,
        "MEAN_ANOMALY": 290.0671,
        "EPHEMERIS_TYPE": 0,
        "CLASSIFICATION_TYPE": "U",
        "NORAD_CAT_ID": 14699,
        "ELEMENT_SET_NO": 999,
        "REV_AT_EPOCH": 28193,
        "BSTAR": 0.00020655,
        "MEAN_MOTION_DOT": 5.149e-05,
        "MEAN_MOTION_DDOT": 0
    },
    {
        "OBJECT_NAME": "SL-14 R/B",
        "OBJECT_ID": "1984-027B",
        "EPOCH": "2026-05-09T15:10:35.815008",
        "MEAN_MOTION": 14.86032792,
        "ECCENTRICITY": 0.0019246,
        "INCLINATION": 82.5431,
        "RA_OF_ASC_NODE": 187.8704,
        "ARG_OF_PERICENTER": 128.722,
        "MEAN_ANOMALY": 231.5721,
        "EPHEMERIS_TYPE": 0,
        "CLASSIFICATION_TYPE": "U",
        "NORAD_CAT_ID": 14820,
        "ELEMENT_SET_NO": 999,
        "REV_AT_EPOCH": 25668,
        "BSTAR": 2.8359e-05,
        "MEAN_MOTION_DOT": 2.74e-06,
        "MEAN_MOTION_DDOT": 0
    },
    {
        "OBJECT_NAME": "SL-8 R/B",
        "OBJECT_ID": "1985-006B",
        "EPOCH": "2026-05-09T20:08:27.719808",
        "MEAN_MOTION": 14.37818608,
        "ECCENTRICITY": 0.0017454,
        "INCLINATION": 74.0435,
        "RA_OF_ASC_NODE": 148.6307,
        "ARG_OF_PERICENTER": 45.2526,
        "MEAN_ANOMALY": 127.9058,
        "EPHEMERIS_TYPE": 0,
        "CLASSIFICATION_TYPE": "U",
        "NORAD_CAT_ID": 15483,
        "ELEMENT_SET_NO": 999,
        "REV_AT_EPOCH": 16281,
        "BSTAR": 5.9868e-05,
        "MEAN_MOTION_DOT": 1.54e-06,
        "MEAN_MOTION_DDOT": 0
    },
    {
        "OBJECT_NAME": "SL-12 R/B(2)",
        "OBJECT_ID": "1985-042D",
        "EPOCH": "2026-05-09T19:32:49.121088",
        "MEAN_MOTION": 14.21998457,
        "ECCENTRICITY": 0.0034098,
        "INCLINATION": 71.108,
        "RA_OF_ASC_NODE": 318.5898,
        "ARG_OF_PERICENTER": 27.54,
        "MEAN_ANOMALY": 343.4007,
        "EPHEMERIS_TYPE": 0,
        "CLASSIFICATION_TYPE": "U",
        "NORAD_CAT_ID": 15772,
        "ELEMENT_SET_NO": 999,
        "REV_AT_EPOCH": 12308,
        "BSTAR": 1.2203e-05,
        "MEAN_MOTION_DOT": -2e-07,
        "MEAN_MOTION_DDOT": 0
    },
    {
        "OBJECT_NAME": "SL-14 R/B",
        "OBJECT_ID": "1985-069B",
        "EPOCH": "2026-05-09T19:12:30.424032",
        "MEAN_MOTION": 14.86487226,
        "ECCENTRICITY": 0.001859,
        "INCLINATION": 82.5257,
        "RA_OF_ASC_NODE": 327.4758,
        "ARG_OF_PERICENTER": 354.7803,
        "MEAN_ANOMALY": 5.3217,
        "EPHEMERIS_TYPE": 0,
        "CLASSIFICATION_TYPE": "U",
        "NORAD_CAT_ID": 15945,
        "ELEMENT_SET_NO": 999,
        "REV_AT_EPOCH": 18191,
        "BSTAR": 2.8457e-05,
        "MEAN_MOTION_DOT": 2.77e-06,
        "MEAN_MOTION_DDOT": 0
    },
    {
        "OBJECT_NAME": "SL-16 R/B",
        "OBJECT_ID": "1985-097B",
        "EPOCH": "2026-05-09T20:33:51.634368",
        "MEAN_MOTION": 14.16608654,
        "ECCENTRICITY": 0.000724,
        "INCLINATION": 71.0048,
        "RA_OF_ASC_NODE": 11.7775,
        "ARG_OF_PERICENTER": 180.2307,
        "MEAN_ANOMALY": 252.5132,
        "EPHEMERIS_TYPE": 0,
        "CLASSIFICATION_TYPE": "U",
        "NORAD_CAT_ID": 16182,
        "ELEMENT_SET_NO": 999,
        "REV_AT_EPOCH": 9589,
        "BSTAR": 0.00012507,
        "MEAN_MOTION_DOT": 2.02e-06,
        "MEAN_MOTION_DDOT": 0
    },
    {
        "OBJECT_NAME": "SL-14 R/B",
        "OBJECT_ID": "1986-006B",
        "EPOCH": "2026-05-09T16:39:16.207776",
        "MEAN_MOTION": 14.86908693,
        "ECCENTRICITY": 0.0077843,
        "INCLINATION": 82.5289,
        "RA_OF_ASC_NODE": 202.332,
        "ARG_OF_PERICENTER": 70.9234,
        "MEAN_ANOMALY": 290.0392,
        "EPHEMERIS_TYPE": 0,
        "CLASSIFICATION_TYPE": "U",
        "NORAD_CAT_ID": 16496,
        "ELEMENT_SET_NO": 999,
        "REV_AT_EPOCH": 15827,
        "BSTAR": 4.0411e-05,
        "MEAN_MOTION_DOT": 4.1e-06,
        "MEAN_MOTION_DDOT": 0
    },
    {
        "OBJECT_NAME": "COSMOS 1743",
        "OBJECT_ID": "1986-034A",
        "EPOCH": "2026-05-09T15:51:19.677024",
        "MEAN_MOTION": 15.63838327,
        "ECCENTRICITY": 0.0006552,
        "INCLINATION": 82.5309,
        "RA_OF_ASC_NODE": 9.5879,
        "ARG_OF_PERICENTER": 71.7567,
        "MEAN_ANOMALY": 288.4404,
        "EPHEMERIS_TYPE": 0,
        "CLASSIFICATION_TYPE": "U",
        "NORAD_CAT_ID": 16719,
        "ELEMENT_SET_NO": 999,
        "REV_AT_EPOCH": 18976,
        "BSTAR": 0.00033861,
        "MEAN_MOTION_DOT": 0.00031844,
        "MEAN_MOTION_DDOT": 0
    },
    {
        "OBJECT_NAME": "SL-14 R/B",
        "OBJECT_ID": "1986-046B",
        "EPOCH": "2026-05-09T18:17:49.790112",
        "MEAN_MOTION": 14.85645967,
        "ECCENTRICITY": 0.0023879,
        "INCLINATION": 82.4842,
        "RA_OF_ASC_NODE": 22.482,
        "ARG_OF_PERICENTER": 29.5795,
        "MEAN_ANOMALY": 330.6766,
        "EPHEMERIS_TYPE": 0,
        "CLASSIFICATION_TYPE": "U",
        "NORAD_CAT_ID": 16792,
        "ELEMENT_SET_NO": 999,
        "REV_AT_EPOCH": 13547,
        "BSTAR": 3.0754e-05,
        "MEAN_MOTION_DOT": 2.92e-06,
        "MEAN_MOTION_DDOT": 0
    },
    {
        "OBJECT_NAME": "SL-14 R/B",
        "OBJECT_ID": "1986-055B",
        "EPOCH": "2026-05-09T19:44:32.227008",
        "MEAN_MOTION": 14.85694544,
        "ECCENTRICITY": 0.0020121,
        "INCLINATION": 82.5206,
        "RA_OF_ASC_NODE": 69.1955,
        "ARG_OF_PERICENTER": 126.9396,
        "MEAN_ANOMALY": 290.9185,
        "EPHEMERIS_TYPE": 0,
        "CLASSIFICATION_TYPE": "U",
        "NORAD_CAT_ID": 16882,
        "ELEMENT_SET_NO": 999,
        "REV_AT_EPOCH": 12844,
        "BSTAR": 3.3563e-05,
        "MEAN_MOTION_DOT": 3.17e-06,
        "MEAN_MOTION_DDOT": 0
    },
    {
        "OBJECT_NAME": "AJISAI (EGS)",
        "OBJECT_ID": "1986-061A",
        "EPOCH": "2026-05-09T20:26:04.809984",
        "MEAN_MOTION": 12.44516197,
        "ECCENTRICITY": 0.0011415,
        "INCLINATION": 50.0093,
        "RA_OF_ASC_NODE": 265.2775,
        "ARG_OF_PERICENTER": 83.4742,
        "MEAN_ANOMALY": 86.1755,
        "EPHEMERIS_TYPE": 0,
        "CLASSIFICATION_TYPE": "U",
        "NORAD_CAT_ID": 16908,
        "ELEMENT_SET_NO": 999,
        "REV_AT_EPOCH": 47561,
        "BSTAR": 0.00013228,
        "MEAN_MOTION_DOT": -7.9e-07,
        "MEAN_MOTION_DDOT": 0
    }
]