SL-3 R/B                
1 13819U 83010B   26129.80837240  .00010355  00000+0  19564-3 0  9997
2 13819  81.1009 287.1918 0015779 191.6629 168.4253 15.48141768367394
SL-3 R/B                
1 14208U 83075B   26129.80034693  .00007776  00000+0  19710-3 0  9998
2 14208  97.6123 136.7577 0021209  16.4992 343.6938 15.39776199339554
COSMOS 1536             
1 14699U 84013A   26129.83862588  .00005149  00000+0  20655-3 0  9992
2 14699  82.5459  47.0210 0016092  70.2300 290.0671 15.24639848281936
SL-14 R/B               
1 14820U 84027B   26129.63235897  .00000274  00000+0  28359-4 0  9992
2 14820  82.5431 187.8704 0019246 128.7220 231.5721 14.86032792256689
SL-8 R/B                
1 15483U 85006B   26129.83920972  .00000154  00000+0  59868-4 0  9999
2 15483  74.0435 148.6307 0017454  45.2526 127.9058 14.37818608162816
SL-12 R/B(2)            
1 15772U 85042D   26129.81445742 -.00000020  00000+0  12203-4 0  9990
2 15772  71.1080 318.5898 0034098  27.5400 343.4007 14.21998457123080
SL-14 R/B               
1 15945U 85069B   26129.80035213  .00000277  00000+0  28457-4 0  9999
2 15945  82.5257 327.4758 0018590 354.7803   5.3217 14.86487226181910
SL-16 R/B               
1 16182U 85097B   26129.85684762  .00000202  00000+0  12507-3 0  9994
2 16182  71.0048  11.7775 0007240 180.2307 252.5132 14.16608654 95894
SL-14 R/B               
1 16496U 86006B   26129.69393759  .00000410  00000+0  40411-4 0  9995
2 16496  82.5289 202.3320 0077843  70.9234 290.0392 14.86908693158270
COSMOS 1743             
1 16719U 86034A   26129.66064441  .00031844  00000+0  33861-3 0  9999
2 16719  82.5309   9.5879 0006552  71.7567 288.4404 15.63838327189769
SL-14 R/B               
1 16792U 86046B   26129.76238183  .00000292  00000+0  30754-4 0  9992
2 16792  82.4842  22.4820 0023879  29.5795 330.6766 14.85645967135475
SL-14 R/B               
1 16882U 86055B   26129.82259522  .00000317  00000+0  33563-4 0  9998
2 16882  82.5206  69.1955 0020121 126.9396 290.9185 14.85694544128440
AJISAI (EGS)            
1 16908U 86061A   26129.85144456 -.00000079  00000+0  13228-3 0  9997
2 16908  50.0093 265.2775 0011415  83.4742  86.1755 12.44516197475612
